NORAD_CAT_ID,OBJECT_NAME,OBJECT_TYPE,EPOCH,MEAN_MOTION,ECCENTRICITY,INCLINATION,RA_OF_ASC_NODE,ARG_OF_PERICENTER,MEAN_ANOMALY,BSTAR,MEAN_MOTION_DOT,MEAN_MOTION_DDOT,TLE_LINE0,TLE_LINE1,TLE_LINE2,SEMIMAJOR_AXIS,PERIOD,APOGEE,PERIGEE,DECAYED
50193.0,STARLINK-3261,PAYLOAD,2024-04-12 11:04:43,15.08841859,0.000147,53.2165,124.6089,88.9841,271.132,4.0169e-05,3.51e-06,0.0,0 STARLINK-3261,1 50193U 21125AP  24103.46161226  .00000351  00000-0  40169-4 0  9990,2 50193  53.2165 124.6089 0001470  88.9841 271.1320 15.08841859131675,6917.875,95.437,540.757,538.723,0.0
50193.0,STARLINK-3261,PAYLOAD,2024-04-13 04:33:58,15.08835475,0.0001462,53.2165,121.3375,91.1799,268.936,9.7522e-05,1.264e-05,0.0,0 STARLINK-3261,1 50193U 21125AP  24104.19025579  .00001264  00000-0  97522-4 0  9990,2 50193  53.2165 121.3375 0001462  91.1799 268.9360 15.08835475131255,6917.894,95.438,540.771,538.748,0.0
50193.0,STARLINK-3261,PAYLOAD,2024-04-13 10:55:30,15.08836182,0.0001461,53.2172,120.1481,93.3941,266.7218,4.9463e-05,4.99e-06,0.0,0 STARLINK-3261,1 50193U 21125AP  24104.45521708  .00000499  00000-0  49463-4 0  9994,2 50193  53.2172 120.1481 0001461  93.3941 266.7218 15.08836182131827,6917.892,95.438,540.768,538.746,0.0
50193.0,STARLINK-3261,PAYLOAD,2024-04-14 07:35:31,15.08841164,0.000142,53.2167,116.282,91.9026,268.2129,8.0814e-05,9.98e-06,0.0,0 STARLINK-3261,1 50193U 21125AP  24105.31633489  .00000998  00000-0  80814-4 0  9999,2 50193  53.2167 116.2820 0001420  91.9026 268.2129 15.08841164131427,6917.877,95.437,540.724,538.759,0.0
50193.0,STARLINK-3261,PAYLOAD,2024-04-15 05:50:55,15.08839389,0.0001512,53.2168,112.1192,107.7942,252.3215,0.00011358,1.52e-05,0.0,0 STARLINK-3261,1 50193U 21125AP  24106.24369604  .00001520  00000-0  11358-3 0  9995,2 50193  53.2168 112.1192 0001512 107.7942 252.3215 15.08839389132090,6917.882,95.438,540.793,538.701,0.0
50193.0,STARLINK-3261,PAYLOAD,2024-04-16 05:41:43,15.08835595,0.000197,53.2176,107.6655,125.5621,234.5555,5.8535e-05,6.43e-06,0.0,0 STARLINK-3261,1 50193U 21125AP  24107.23731135  .00000643  00000-0  58535-4 0  9991,2 50193  53.2176 107.6655 0001970 125.5621 234.5555 15.08835595131714,6917.894,95.438,541.122,538.396,0.0
50193.0,STARLINK-3261,PAYLOAD,2024-04-16 07:17:06,15.08838222,0.0001472,53.217,107.3622,105.1321,254.9834,8.8572e-05,1.122e-05,0.0,0 STARLINK-3261,1 50193U 21125AP  24107.30354989  .00001122  00000-0  88572-4 0  9994,2 50193  53.2170 107.3622 0001472 105.1321 254.9834 15.08838222132253,6917.886,95.438,540.769,538.733,0.0
50193.0,STARLINK-3261,PAYLOAD,2024-04-16 16:49:25,15.08846444,0.0001435,53.2173,105.5772,94.7048,265.4108,0.00015447,2.172e-05,0.0,0 STARLINK-3261,1 50193U 21125AP  24107.70098482  .00002172  00000-0  15447-3 0  9997,2 50193  53.2173 105.5772 0001435  94.7048 265.4108 15.08846444131783,6917.861,95.437,540.718,538.733,0.0
50193.0,STARLINK-3261,PAYLOAD,2024-04-17 08:43:16,15.08862818,0.000151,53.2161,102.6039,95.4664,264.6501,0.0008838,0.00013814,0.0,0 STARLINK-3261,1 50193U 21125AP  24108.36338576  .00013814  00000-0  88380-3 0  9992,2 50193  53.2161 102.6039 0001510  95.4664 264.6501 15.08862818132412,6917.811,95.436,540.72,538.631,0.0
50193.0,STARLINK-3261,PAYLOAD,2024-04-18 03:47:53,15.08856236,0.000202,53.2148,99.0336,135.6957,224.4197,9.1362e-05,1.167e-05,0.0,0 STARLINK-3261,1 50193U 21125AP  24109.15825714  .00001167  00000-0  91362-4 0  9998,2 50193  53.2148  99.0336 0002020 135.6957 224.4197 15.08856236132002,6917.831,95.437,541.093,538.298,0.0
50193.0,STARLINK-3261,PAYLOAD,2024-04-18 08:34:03,15.08844929,0.0001122,53.215,98.1436,93.9804,266.1316,2.9116e-05,1.76e-06,0.0,0 STARLINK-3261,1 50193U 21125AP  24109.35698317  .00000176  00000-0  29116-4 0  9994,2 50193  53.2150  98.1436 0001122  93.9804 266.1316 15.08844929132030,6917.865,95.437,540.507,538.954,0.0
50193.0,STARLINK-3261,PAYLOAD,2024-04-19 08:24:50,15.08850793,0.0001326,53.2158,93.6797,82.1758,277.9385,1.4163e-05,-6.2e-07,0.0,0 STARLINK-3261,1 50193U 21125AP  24110.35058084 -.00000062  00000-0  14163-4 0  9998,2 50193  53.2158  93.6797 0001326  82.1758 277.9385 15.08850793132719,6917.847,95.437,540.63,538.795,0.0
50193.0,STARLINK-3261,PAYLOAD,2024-04-19 22:43:18,15.08844212,0.0001497,53.2164,91.0036,75.4205,284.6953,0.00025628,3.794e-05,0.0,0 STARLINK-3261,1 50193U 21125AP  24110.94674383  .00003794  00000-0  25628-3 0  9990,2 50193  53.2164  91.0036 0001497  75.4205 284.6953 15.08844212132800,6917.868,95.437,540.768,538.697,0.0
50193.0,STARLINK-3261,PAYLOAD,2024-04-20 05:04:51,15.08846883,0.0001417,53.216,89.814,82.0602,278.0551,0.00028213,4.206e-05,0.0,0 STARLINK-3261,1 50193U 21125AP  24111.21170247  .00004206  00000-0  28213-3 0  9993,2 50193  53.2160  89.8140 0001417  82.0602 278.0551 15.08846883132317,6917.859,95.437,540.705,538.744,0.0
50193.0,STARLINK-3261,PAYLOAD,2024-04-21 03:20:16,15.08816445,0.0001366,53.2168,85.6495,100.0071,260.1076,-0.00032039,-5.38e-05,0.0,0 STARLINK-3261,1 50193U 21125AP  24112.13907641 -.00005380  00000-0 -32039-3 0  9998,2 50193  53.2168  85.6495 0001366 100.0071 260.1076 15.08816445132456,6917.952,95.439,540.762,538.872,0.0
50193.0,STARLINK-3261,PAYLOAD,2024-04-21 08:06:26,15.08812409,0.0001303,53.2174,84.7595,81.7775,278.3365,-0.00032115,-5.391e-05,0.0,0 STARLINK-3261,1 50193U 21125AP  24112.33780188 -.00005391  00000-0 -32115-3 0  9992,2 50193  53.2174  84.7595 0001303  81.7775 278.3365 15.08812409133012,6917.965,95.439,540.731,538.928,0.0
50193.0,STARLINK-3261,PAYLOAD,2024-04-21 22:24:53,15.08835576,0.0001375,53.2187,82.0887,93.7068,266.4081,0.00010942,1.454e-05,0.0,0 STARLINK-3261,1 50193U 21125AP  24112.93395710  .00001454  00000-0  10942-3 0  9999,2 50193  53.2187  82.0887 0001375  93.7068 266.4081 15.08835576133101,6917.894,95.438,540.71,538.808,0.0
50193.0,STARLINK-3261,PAYLOAD,2024-04-22 04:46:25,15.08856705,0.0001429,53.2175,80.8945,100.1834,259.932,0.00037577,5.7e-05,0.0,0 STARLINK-3261,1 50193U 21125AP  24113.19890606  .00005700  00000-0  37577-3 0  9993,2 50193  53.2175  80.8945 0001429 100.1834 259.9320 15.08856705132618,6917.829,95.436,540.683,538.706,0.0
50193.0,STARLINK-3261,PAYLOAD,2024-04-23 04:37:13,15.08837144,0.0001058,53.217,76.4335,112.6011,247.5093,0.00029742,4.448e-05,0.0,0 STARLINK-3261,1 50193U 21125AP  24114.19251565  .00004448  00000-0  29742-3 0  9992,2 50193  53.2170  76.4335 0001058 112.6011 247.5093 15.08837144132762,6917.889,95.438,540.486,539.022,0.0
50193.0,STARLINK-3261,PAYLOAD,2024-04-23 07:47:59,15.0883654,0.0001147,53.2173,75.8406,114.616,245.4952,0.00023834,3.507e-05,0.0,0 STARLINK-3261,1 50193U 21125AP  24114.32499571  .00003507  00000-0  23834-3 0  9999,2 50193  53.2173  75.8406 0001147 114.6160 245.4952 15.08836540133315,6917.891,95.438,540.549,538.962,0.0
50193.0,STARLINK-3261,PAYLOAD,2024-04-23 22:06:27,15.08840274,0.000112,53.2175,73.1639,112.8516,247.2594,-0.00020194,-3.5e-05,0.0,0 STARLINK-3261,1 50193U 21125AP  24114.92115297 -.00003500  00000-0 -20194-3 0  9996,2 50193  53.2175  73.1639 0001120 112.8516 247.2594 15.08840274133403,6917.88,95.438,540.519,538.97,0.0
50193.0,STARLINK-3261,PAYLOAD,2024-04-24 06:03:22,15.08856276,0.0001468,53.2192,71.676,121.0366,239.077,2.6654e-05,1.36e-06,0.0,0 STARLINK-3261,1 50193U 21125AP  24115.25234522  .00000136  00000-0  26654-4 0  9994,2 50193  53.2192  71.6760 0001468 121.0366 239.0770 15.08856276132920,6917.831,95.437,540.711,538.68,0.0
50193.0,STARLINK-3261,PAYLOAD,2024-04-25 02:43:24,15.0883664,0.0001521,53.2188,67.8106,125.6412,234.4722,9.9352e-05,1.293e-05,0.0,0 STARLINK-3261,1 50193U 21125AP  24116.11347227  .00001293  00000-0  99352-4 0  9997,2 50193  53.2188  67.8106 0001521 125.6412 234.4722 15.08836640133052,6917.891,95.438,540.808,538.703,0.0
50193.0,STARLINK-3261,PAYLOAD,2024-04-26 05:44:56,15.08853193,0.0001673,53.2194,62.7541,131.998,228.1155,-3.6266e-05,-8.65e-06,0.0,0 STARLINK-3261,1 50193U 21125AP  24117.23954611 -.00000865  00000-0 -36266-4 0  9993,2 50193  53.2194  62.7541 0001673 131.9980 228.1155 15.08853193133225,6917.84,95.437,540.862,538.548,0.0
50193.0,STARLINK-3261,PAYLOAD,2024-04-27 02:24:57,15.08842525,0.0001299,53.2196,58.8877,109.3471,250.7662,0.00010634,1.405e-05,0.0,0 STARLINK-3261,1 50193U 21125AP  24118.10066959  .00001405  00000-0  10634-3 0  9998,2 50193  53.2196  58.8877 0001299 109.3471 250.7662 15.08842525133358,6917.873,95.437,540.636,538.839,0.0
50193.0,STARLINK-3261,PAYLOAD,2024-04-27 13:32:38,15.08853007,0.0001088,53.2185,56.8074,94.7092,265.4024,0.00017016,2.422e-05,0.0,0 STARLINK-3261,1 50193U 21125AP  24118.56433907  .00002422  00000-0  17016-3 0  9990,2 50193  53.2185  56.8074 0001088  94.7092 265.4024 15.08853007133425,6917.841,95.437,540.458,538.953,0.0
50193.0,STARLINK-3261,PAYLOAD,2024-04-27 19:54:12,15.08840782,0.0002132,53.2163,55.6205,85.7257,274.3978,-1.5824e-05,-5.4e-06,0.0,0 STARLINK-3261,1 50193U 21125AP  24118.82931481 -.00000540  00000-0 -15824-4 0  9996,2 50193  53.2163  55.6205 0002132  85.7257 274.3978 15.08840782133465,6917.878,95.438,541.218,538.268,0.0
50193.0,STARLINK-3261,PAYLOAD,2024-04-28 00:40:23,15.08825767,0.0001531,53.2172,54.7283,94.9112,265.2055,-0.00010154,-1.903e-05,0.0,0 STARLINK-3261,1 50193U 21125AP  24119.02804566 -.00001903  00000-0 -10154-3 0  9996,2 50193  53.2172  54.7283 0001531  94.9112 265.2055 15.08825767133499,6917.924,95.438,540.848,538.73,0.0
50193.0,STARLINK-3261,PAYLOAD,2024-04-28 05:26:32,15.08829195,0.0001388,53.2168,53.8359,90.8339,269.2812,-0.0001057,-1.969e-05,0.0,0 STARLINK-3261,1 50193U 21125AP  24119.22676450 -.00001969  00000-0 -10570-3 0  9991,2 50193  53.2168  53.8359 0001388  90.8339 269.2812 15.08829195134051,6917.913,95.438,540.739,538.818,0.0
50193.0,STARLINK-3261,PAYLOAD,2024-04-28 19:45:00,15.08841556,0.000153,53.2178,51.1605,86.6953,273.4214,-3.4563e-05,-8.38e-06,0.0,0 STARLINK-3261,1 50193U 21125AP  24119.82291797 -.00000838  00000-0 -34563-4 0  9997,2 50193  53.2178  51.1605 0001530  86.6953 273.4214 15.08841556133610,6917.876,95.437,540.799,538.682,0.0
